{"id":"899","name":"Neptune ","epoch":"2000-Jan-01 12:00:00.0000","physicalData":{"meanRadius":24624000,"mass":1.02409e+26,"siderealRotRate":0.006207310160888313,"gravParameter":6835099970,"obliquity":28.32},"elementTable":{"ephemerisType":"ELEMENTS","table":{"eccentricity":0.01126932255243264,"periapsis":4452266434.805656,"inclination":1.764684957556454,"longitudeOfAscendingNode":131.808750441014,"argumentOfPeriapsis":266.1071489542577,"timeOfPeriapsis":2467077.427229176,"meanMotion":1.764684957556454,"meanAnomaly":267.2982359930508,"trueAnomaly":266.0092669094219,"semiMajorAxis":267.2982359930508,"apoapsis":4553758231.687532,"siderealOrbitPeriod":5211557964.528826}},"vectorTable":{"position":[2515046196902.194,-3738714505596.9746,19032439512.459038],"velocity":[4465.545893532924,3076.706361504887,-165.7410503897234],"range":4505974451843.599,"rangeRate":-61.036063576074504}}
